{"type": "FeatureCollection", "features": [ {"type": "Feature", "properties": {"norad_id": 67121, "name": "STARLINK-36124", "group": "last-30-days", "lat": -40.75559763596624, "lon": 171.82469796223702, "alt_km": 322.13974522654917, "timestamp": "2025-12-25T07:41:08.453018+00:00", "meta": {"OBJECT_NAME": "STARLINK-36124", "OBJECT_ID": "2025-299V", "EPOCH": "2025-12-24T22:00:03.000096", "MEAN_MOTION": 15.85267544, "ECCENTRICITY": 0.00013704, "INCLINATION": 42.997, "RA_OF_ASC_NODE": 241.972, "ARG_OF_PERICENTER": 271.0453, "MEAN_ANOMALY": 231.077, "EPHEMERIS_TYPE": 0, "CLASSIFICATION_TYPE": "U", "NORAD_CAT_ID": 67121, "ELEMENT_SET_NO": 999, "REV_AT_EPOCH": 276, "BSTAR": -0.0083668313, "MEAN_MOTION_DOT": -0.01773021, "MEAN_MOTION_DDOT": 0}, "tle": {"line1": "1 67121U 25299V   25358.91670139 -.01773021  00000+0 -83668-2 0  9998", "line2": "2 67121  42.9970 241.9720 0001370 271.0453 231.0770 15.85267544  2760"}}, "geometry": {"type": "Point", "coordinates": [171.82469796223702, -40.75559763596624]}}, {"type": "Feature", "properties": {"norad_id": 67122, "name": "STARLINK-36188", "group": "last-30-days", "lat": -40.35071797927144, "lon": 173.72572624560397, "alt_km": 322.09808139968845, "timestamp": "2025-12-25T07:41:08.453028+00:00", "meta": {"OBJECT_NAME": "STARLINK-36188", "OBJECT_ID": "2025-299W", "EPOCH": "2025-12-24T22:00:03.000096", "MEAN_MOTION": 15.85285212, "ECCENTRICITY": 0.00013614, "INCLINATION": 42.9971, "RA_OF_ASC_NODE": 241.9686, "ARG_OF_PERICENTER": 270.891, "MEAN_ANOMALY": 232.7126, "EPHEMERIS_TYPE": 0, "CLASSIFICATION_TYPE": "U", "NORAD_CAT_ID": 67122, "ELEMENT_SET_NO": 999, "REV_AT_EPOCH": 276, "BSTAR": -0.0083792515, "MEAN_MOTION_DOT": -0.01776577, "MEAN_MOTION_DDOT": 0}, "tle": {"line1": "1 67122U 25299W   25358.91670139 -.01776577  00000+0 -83793-2 0  9997", "line2": "2 67122  42.9971 241.9686 0001361 270.8910 232.7126 15.85285212  2763"}}, "geometry": {"type": "Point", "coordinates": [173.72572624560397, -40.35071797927144]}}, {"type": "Feature", "properties": {"norad_id": 67123, "name": "STARLINK-36151", "group": "last-30-days", "lat": -41.19136675542661, "lon": 169.56287102913964, "alt_km": 322.1170053587766, "timestamp": "2025-12-25T07:41:08.453037+00:00", "meta": {"OBJECT_NAME": "STARLINK-36151", "OBJECT_ID": "2025-299X", "EPOCH": "2025-12-24T22:00:03.000096", "MEAN_MOTION": 15.85269515, "ECCENTRICITY": 0.00014072, "INCLINATION": 42.9974, "RA_OF_ASC_NODE": 241.9768, "ARG_OF_PERICENTER": 275.7547, "MEAN_ANOMALY": 224.6051, "EPHEMERIS_TYPE": 0, "CLASSIFICATION_TYPE": "U", "NORAD_CAT_ID": 67123, "ELEMENT_SET_NO": 999, "REV_AT_EPOCH": 276, "BSTAR": -0.0084131365, "MEAN_MOTION_DOT": -0.01781586, "MEAN_MOTION_DDOT": 0}, "tle": {"line1": "1 67123U 25299X   25358.91670139 -.01781586  00000+0 -84131-2 0  9991", "line2": "2 67123  42.9974 241.9768 0001407 275.7547 224.6051 15.85269515  2764"}}, "geometry": {"type": "Point", "coordinates": [169.56287102913964, -41.19136675542661]}}, {"type": "Feature", "properties": {"norad_id": 67124, "name": "STARLINK-36195", "group": "last-30-days", "lat": -39.86672657587294, "lon": 175.80232665218176, "alt_km": 322.0333595799657, "timestamp": "2025-12-25T07:41:08.453049+00:00", "meta": {"OBJECT_NAME": "STARLINK-36195", "OBJECT_ID": "2025-299Y", "EPOCH": "2025-12-24T22:00:03.000096", "MEAN_MOTION": 15.85299496, "ECCENTRICITY": 0.00014333, "INCLINATION": 42.9974, "RA_OF_ASC_NODE": 241.9644, "ARG_OF_PERICENTER": 269.3514, "MEAN_ANOMALY": 235.9022, "EPHEMERIS_TYPE": 0, "CLASSIFICATION_TYPE": "U", "NORAD_CAT_ID": 67124, "ELEMENT_SET_NO": 999, "REV_AT_EPOCH": 276, "BSTAR": -0.0084188643, "MEAN_MOTION_DOT": -0.01784893, "MEAN_MOTION_DDOT": 0}, "tle": {"line1": "1 67124U 25299Y   25358.91670139 -.01784893  00000+0 -84189-2 0  9999", "line2": "2 67124  42.9974 241.9644 0001433 269.3514 235.9022 15.85299496  2764"}}, "geometry": {"type": "Point", "coordinates": [175.80232665218176, -39.86672657587294]}}, {"type": "Feature", "properties": {"norad_id": 67125, "name": "STARLINK-36219", "group": "last-30-days", "lat": -39.37518529167439, "lon": 177.73570328053208, "alt_km": 321.9578626469538, "timestamp": "2025-12-25T07:41:08.453061+00:00", "meta": {"OBJECT_NAME": "STARLINK-36219", "OBJECT_ID": "2025-299Z", "EPOCH": "2025-12-24T22:00:03.000096", "MEAN_MOTION": 15.85301666, "ECCENTRICITY": 0.00014322, "INCLINATION": 42.997, "RA_OF_ASC_NODE": 241.96, "ARG_OF_PERICENTER": 272.9361, "MEAN_ANOMALY": 233.8811, "EPHEMERIS_TYPE": 0, "CLASSIFICATION_TYPE": "U", "NORAD_CAT_ID": 67125, "ELEMENT_SET_NO": 999, "REV_AT_EPOCH": 276, "BSTAR": -0.0083596887, "MEAN_MOTION_DOT": -0.01774332, "MEAN_MOTION_DDOT": 0}, "tle": {"line1": "1 67125U 25299Z   25358.91670139 -.01774332  00000+0 -83597-2 0  9999", "line2": "2 67125  42.9970 241.9600 0001432 272.9361 233.8811 15.85301666  2768"}}, "geometry": {"type": "Point", "coordinates": [177.73570328053208, -39.37518529167439]}}, {"type": "Feature", "properties": {"norad_id": 67126, "name": "STARLINK-36223", "group": "last-30-days", "lat": -38.754509369541374, "lon": 179.9837468196834, "alt_km": 322.0570151508282, "timestamp": "2025-12-25T07:41:08.453071+00:00", "meta": {"OBJECT_NAME": "STARLINK-36223", "OBJECT_ID": "2025-299AA", "EPOCH": "2025-12-24T22:00:03.000096", "MEAN_MOTION": 15.85312885, "ECCENTRICITY": 0.00013482, "INCLINATION": 42.9971, "RA_OF_ASC_NODE": 241.9555, "ARG_OF_PERICENTER": 266.8678, "MEAN_ANOMALY": 241.7971, "EPHEMERIS_TYPE": 0, "CLASSIFICATION_TYPE": "U", "NORAD_CAT_ID": 67126, "ELEMENT_SET_NO": 999, "REV_AT_EPOCH": 276, "BSTAR": -0.0084152555, "MEAN_MOTION_DOT": -0.01785152, "MEAN_MOTION_DDOT": 0}, "tle": {"line1": "1 67126U 25299AA  25358.91670139 -.01785152  00000+0 -84153-2 0  9991", "line2": "2 67126  42.9971 241.9555 0001348 266.8678 241.7971 15.85312885  2768"}}, "geometry": {"type": "Point", "coordinates": [179.9837468196834, -38.754509369541374]}}, {"type": "Feature", "properties": {"norad_id": 67127, "name": "STARLINK-36164", "group": "last-30-days", "lat": -38.150438086556626, "lon": -177.99836930258624, "alt_km": 322.01410544729424, "timestamp": "2025-12-25T07:41:08.453081+00:00", "meta": {"OBJECT_NAME": "STARLINK-36164", "OBJECT_ID": "2025-299AB", "EPOCH": "2025-12-24T22:00:03.000096", "MEAN_MOTION": 15.85314835, "ECCENTRICITY": 0.00013497, "INCLINATION": 42.9971, "RA_OF_ASC_NODE": 241.9513, "ARG_OF_PERICENTER": 267.2203, "MEAN_ANOMALY": 243.1331, "EPHEMERIS_TYPE": 0, "CLASSIFICATION_TYPE": "U", "NORAD_CAT_ID": 67127, "ELEMENT_SET_NO": 999, "REV_AT_EPOCH": 276, "BSTAR": -0.0083736689, "MEAN_MOTION_DOT": -0.01777764, "MEAN_MOTION_DDOT": 0}, "tle": {"line1": "1 67127U 25299AB  25358.91670139 -.01777764  00000+0 -83737-2 0  9999", "line2": "2 67127  42.9971 241.9513 0001349 267.2203 243.1331 15.85314835  2766"}}, "geometry": {"type": "Point", "coordinates": [-177.99836930258624, -38.150438086556626]}}, {"type": "Feature", "properties": {"norad_id": 67128, "name": "STARLINK-35685", "group": "last-30-days", "lat": -36.311381315522425, "lon": -172.6109387762119, "alt_km": 322.0695392087955, "timestamp": "2025-12-25T07:41:08.453091+00:00", "meta": {"OBJECT_NAME": "STARLINK-35685", "OBJECT_ID": "2025-299AC", "EPOCH": "2025-12-24T22:00:03.000096", "MEAN_MOTION": 15.85289871, "ECCENTRICITY": 0.00013767, "INCLINATION": 42.9969, "RA_OF_ASC_NODE": 241.939, "ARG_OF_PERICENTER": 264.2229, "MEAN_ANOMALY": 250.847, "EPHEMERIS_TYPE": 0, "CLASSIFICATION_TYPE": "U", "NORAD_CAT_ID": 67128, "ELEMENT_SET_NO": 999, "REV_AT_EPOCH": 276, "BSTAR": -0.0083910826, "MEAN_MOTION_DOT": -0.01779085, "MEAN_MOTION_DDOT": 0}, "tle": {"line1": "1 67128U 25299AC  25358.91670139 -.01779085  00000+0 -83911-2 0  9992", "line2": "2 67128  42.9969 241.9390 0001376 264.2229 250.8470 15.85289871  2762"}}, "geometry": {"type": "Point", "coordinates": [-172.6109387762119, -36.311381315522425]}}, {"type": "Feature", "properties": {"norad_id": 67129, "name": "STARLINK-36214", "group": "last-30-days", "lat": -37.41253337019895, "lon": -175.71719679070256, "alt_km": 321.93043924463836, "timestamp": "2025-12-25T07:41:08.453103+00:00", "meta": {"OBJECT_NAME": "STARLINK-36214", "OBJECT_ID": "2025-299AD", "EPOCH": "2025-12-24T22:00:03.000096", "MEAN_MOTION": 15.85314988, "ECCENTRICITY": 0.00013488, "INCLINATION": 42.997, "RA_OF_ASC_NODE": 241.9461, "ARG_OF_PERICENTER": 273.9926, "MEAN_ANOMALY": 238.3189, "EPHEMERIS_TYPE": 0, "CLASSIFICATION_TYPE": "U", "NORAD_CAT_ID": 67129, "ELEMENT_SET_NO": 999, "REV_AT_EPOCH": 276, "BSTAR": -0.0083864711, "MEAN_MOTION_DOT": -0.01780095, "MEAN_MOTION_DDOT": 0}, "tle": {"line1": "1 67129U 25299AD  25358.91670139 -.01780095  00000+0 -83865-2 0  9994", "line2": "2 67129  42.9970 241.9461 0001348 273.9926 238.3189 15.85314988  2760"}}, "geometry": {"type": "Point", "coordinates": [-175.71719679070256, -37.41253337019895]}}, {"type": "Feature", "properties": {"norad_id": 67130, "name": "STARLINK-36194", "group": "last-30-days", "lat": -34.22588681559546, "lon": -167.44934367853313, "alt_km": 322.0618505402126, "timestamp": "2025-12-25T07:41:08.453115+00:00", "meta": {"OBJECT_NAME": "STARLINK-36194", "OBJECT_ID": "2025-299AE", "EPOCH": "2025-12-24T22:00:03.000096", "MEAN_MOTION": 15.85193605, "ECCENTRICITY": 0.00014562, "INCLINATION": 42.997, "RA_OF_ASC_NODE": 241.9286, "ARG_OF_PERICENTER": 276.2575, "MEAN_ANOMALY": 243.6667, "EPHEMERIS_TYPE": 0, "CLASSIFICATION_TYPE": "U", "NORAD_CAT_ID": 67130, "ELEMENT_SET_NO": 999, "REV_AT_EPOCH": 276, "BSTAR": -0.0084062351, "MEAN_MOTION_DOT": -0.01774729, "MEAN_MOTION_DDOT": 0}, "tle": {"line1": "1 67130U 25299AE  25358.91670139 -.01774729  00000+0 -84062-2 0  9993", "line2": "2 67130  42.9970 241.9286 0001456 276.2575 243.6667 15.85193605  2764"}}, "geometry": {"type": "Point", "coordinates": [-167.44934367853313, -34.22588681559546]}}]}